[{"OBJECT_NAME":"STARLINK-3638","OBJECT_ID":"2022-017U","EPOCH":"2026-03-09T22:07:14.121408","MEAN_MOTION":15.08817254,"ECCENTRICITY":0.00014038,"INCLINATION":53.2192,"RA_OF_ASC_NODE":348.0787,"ARG_OF_PERICENTER":107.8319,"MEAN_ANOMALY":252.2826,"EPHEMERIS_TYPE":0,"CLASSIFICATION_TYPE":"U","NORAD_CAT_ID":51786,"ELEMENT_SET_NO":999,"REV_AT_EPOCH":22231,"BSTAR":0.00017953378,"MEAN_MOTION_DOT":2.569e-5,"MEAN_MOTION_DDOT":0},{"OBJECT_NAME":"BREEZE-M DEB [TANK]","OBJECT_ID":"2020-053D","EPOCH":"2026-03-09T04:27:12.390912","MEAN_MOTION":3.64308032,"ECCENTRICITY":0.62229826,"INCLINATION":49.5912,"RA_OF_ASC_NODE":55.0217,"ARG_OF_PERICENTER":263.9891,"MEAN_ANOMALY":26.7657,"EPHEMERIS_TYPE":0,"CLASSIFICATION_TYPE":"U","NORAD_CAT_ID":45988,"ELEMENT_SET_NO":999,"REV_AT_EPOCH":7312,"BSTAR":0.00099158346,"MEAN_MOTION_DOT":1.156e-5,"MEAN_MOTION_DDOT":0}]
